start=new Date('2021-11-14T00:00:00.000Z').valueOf();
sats=[{"MEAN_MOTION_DDOT":"0.0000000000000","INCLINATION":"53.0556","APOAPSIS":"548.179","NORAD_CAT_ID":"46699","REV_AT_EPOCH":"5945","BSTAR":"0.00008096200000","REF_FRAME":"TEME","SITE":"AFETR","FILE":"3214514","ECCENTRICITY":"0.00013890","RA_OF_ASC_NODE":"120.5970","GP_ID":"189711784","MEAN_MOTION_DOT":"0.00000925","OBJECT_TYPE":"PAYLOAD","ARG_OF_PERICENTER":"88.3212","ELEMENT_SET_NO":"999","TLE_LINE2":"2 46699  53.0556 120.5970 0001389  88.3212 271.7936 15.06398806 59453","PERIOD":"95.592","PERIAPSIS":"546.255","MEAN_ANOMALY":"271.7936","CLASSIFICATION_TYPE":"U","TLE_LINE1":"1 46699U 20073AF  21317.79055474  .00000925  00000-0  80962-4 0  9996","EPOCH":"2021-11-13T18:58:23.929536","MEAN_ELEMENT_THEORY":"SGP4","COUNTRY_CODE":"US","EPHEMERIS_TYPE":"0","MEAN_MOTION":"15.06398806","OBJECT_ID":"2020-073AF","TIME_SYSTEM":"UTC","DECAY_DATE":null,"CENTER_NAME":"EARTH","RCS_SIZE":"LARGE","SEMIMAJOR_AXIS":"6925.352","OBJECT_NAME":"STARLINK-1799","LAUNCH_DATE":"2020-10-18"},{"OBJECT_NAME":"STARLINK-1800","RCS_SIZE":"LARGE","SEMIMAJOR_AXIS":"6925.331","LAUNCH_DATE":"2020-10-18","OBJECT_ID":"2020-073AG","COUNTRY_CODE":"US","MEAN_MOTION":"15.06405745","EPHEMERIS_TYPE":"0","MEAN_ELEMENT_THEORY":"SGP4","CENTER_NAME":"EARTH","DECAY_DATE":null,"TIME_SYSTEM":"UTC","TLE_LINE1":"1 46700U 20073AG  21317.92740722  .00001243  00000-0  10232-3 0  9997","CLASSIFICATION_TYPE":"U","MEAN_ANOMALY":"284.3693","EPOCH":"2021-11-13T22:15:27.983808","PERIAPSIS":"546.116","GP_ID":"189712034","PERIOD":"95.592","TLE_LINE2":"2 46700  53.0519 134.9817 0001559  75.7469 284.3693 15.06405745 59267","ELEMENT_SET_NO":"999","ARG_OF_PERICENTER":"75.7469","OBJECT_TYPE":"PAYLOAD","MEAN_MOTION_DOT":"0.00001243","FILE":"3214514","SITE":"AFETR","REF_FRAME":"TEME","RA_OF_ASC_NODE":"134.9817","ECCENTRICITY":"0.00015590","NORAD_CAT_ID":"46700","APOAPSIS":"548.276","INCLINATION":"53.0519","MEAN_MOTION_DDOT":"0.0000000000000","BSTAR":"0.00010232000000","REV_AT_EPOCH":"5926"},{"BSTAR":"0.00007908400000","REV_AT_EPOCH":"5947","INCLINATION":"53.0528","APOAPSIS":"548.182","NORAD_CAT_ID":"46701","MEAN_MOTION_DDOT":"0.0000000000000","PERIOD":"95.592","TLE_LINE2":"2 46701  53.0528 120.1201 0001382  79.6073 280.5071 15.06396387 59472","ELEMENT_SET_NO":"999","ARG_OF_PERICENTER":"79.6073","OBJECT_TYPE":"PAYLOAD","MEAN_MOTION_DOT":"0.00000897","GP_ID":"189712285","RA_OF_ASC_NODE":"120.1201","ECCENTRICITY":"0.00013820","FILE":"3214514","SITE":"AFETR","REF_FRAME":"TEME","EPOCH":"2021-11-13T21:27:00.027648","TLE_LINE1":"1 46701U 20073AH  21317.89375032  .00000897  00000-0  79084-4 0  9997","CLASSIFICATION_TYPE":"U","MEAN_ANOMALY":"280.5071","PERIAPSIS":"546.268","LAUNCH_DATE":"2020-10-18","OBJECT_NAME":"STARLINK-1801","SEMIMAJOR_AXIS":"6925.360","RCS_SIZE":"LARGE","CENTER_NAME":"EARTH","DECAY_DATE":null,"TIME_SYSTEM":"UTC","OBJECT_ID":"2020-073AH","COUNTRY_CODE":"US","MEAN_MOTION":"15.06396387","EPHEMERIS_TYPE":"0","MEAN_ELEMENT_THEORY":"SGP4"},{"OBJECT_ID":"2020-073AJ","COUNTRY_CODE":"US","MEAN_MOTION":"15.06399308","EPHEMERIS_TYPE":"0","MEAN_ELEMENT_THEORY":"SGP4","CENTER_NAME":"EARTH","DECAY_DATE":null,"TIME_SYSTEM":"UTC","OBJECT_NAME":"STARLINK-1802","RCS_SIZE":"LARGE","SEMIMAJOR_AXIS":"6925.351","LAUNCH_DATE":"2020-10-18","PERIAPSIS":"546.372","TLE_LINE1":"1 46702U 20073AJ  21317.84030874 -.00000723  00000-0 -29632-4 0  9999","CLASSIFICATION_TYPE":"U","MEAN_ANOMALY":"216.9699","EPOCH":"2021-11-13T20:10:02.675136","FILE":"3214514","SITE":"AFETR","REF_FRAME":"TEME","ECCENTRICITY":"0.00012180","RA_OF_ASC_NODE":"100.3806","GP_ID":"189712536","PERIOD":"95.592","TLE_LINE2":"2 46702  53.0566 100.3806 0001218 143.1374 216.9699 15.06399308 59740","ARG_OF_PERICENTER":"143.1374","ELEMENT_SET_NO":"999","MEAN_MOTION_DOT":"-0.00000723","OBJECT_TYPE":"PAYLOAD","APOAPSIS":"548.059","INCLINATION":"53.0566","NORAD_CAT_ID":"46702","MEAN_MOTION_DDOT":"0.0000000000000","BSTAR":"-0.00002963200000","REV_AT_EPOCH":"5974"},{"BSTAR":"0.00006962900000","REV_AT_EPOCH":"5945","NORAD_CAT_ID":"46703","APOAPSIS":"548.246","INCLINATION":"53.0534","MEAN_MOTION_DDOT":"0.0000000000000","PERIOD":"95.592","TLE_LINE2":"2 46703  53.0534 120.5307 0001523  82.6247 277.4915 15.06407364 59454","ELEMENT_SET_NO":"999","ARG_OF_PERICENTER":"82.6247","MEAN_MOTION_DOT":"0.00000756","OBJECT_TYPE":"PAYLOAD","GP_ID":"189711284","ECCENTRICITY":"0.00015230","RA_OF_ASC_NODE":"120.5307","SITE":"AFETR","FILE":"3214514","REF_FRAME":"TEME","EPOCH":"2021-11-13T19:19:37.862976","TLE_LINE1":"1 46703U 20073AK  21317.80529934  .00000756  00000-0  69629-4 0  9990","CLASSIFICATION_TYPE":"U","MEAN_ANOMALY":"277.4915","PERIAPSIS":"546.136","LAUNCH_DATE":"2020-10-18","OBJECT_NAME":"STARLINK-1803","RCS_SIZE":"LARGE","SEMIMAJOR_AXIS":"6925.326","CENTER_NAME":"EARTH","DECAY_DATE":null,"TIME_SYSTEM":"UTC","OBJECT_ID":"2020-073AK","COUNTRY_CODE":"US","MEAN_MOTION":"15.06407364","EPHEMERIS_TYPE":"0","MEAN_ELEMENT_THEORY":"SGP4"},{"FILE":"3214514","SITE":"AFETR","REF_FRAME":"TEME","RA_OF_ASC_NODE":"100.6067","ECCENTRICITY":"0.00009790","GP_ID":"189711534","OBJECT_TYPE":"PAYLOAD","MEAN_MOTION_DOT":"-0.00000868","PERIOD":"95.592","TLE_LINE2":"2 46704  53.0562 100.6067 0000979 199.6540 160.4411 15.06395247 59736","ARG_OF_PERICENTER":"199.6540","ELEMENT_SET_NO":"999","MEAN_MOTION_DDOT":"0.0000000000000","APOAPSIS":"547.906","NORAD_CAT_ID":"46704","INCLINATION":"53.0562","REV_AT_EPOCH":"5973","BSTAR":"-0.00003942400000","COUNTRY_CODE":"US","EPHEMERIS_TYPE":"0","MEAN_MOTION":"15.06395247","MEAN_ELEMENT_THEORY":"SGP4","OBJECT_ID":"2020-073AL","TIME_SYSTEM":"UTC","CENTER_NAME":"EARTH","DECAY_DATE":null,"RCS_SIZE":"LARGE","SEMIMAJOR_AXIS":"6925.363","OBJECT_NAME":"STARLINK-1804","LAUNCH_DATE":"2020-10-18","PERIAPSIS":"546.550","MEAN_ANOMALY":"160.4411","TLE_LINE1":"1 46704U 20073AL  21317.78502024 -.00000868  00000-0 -39424-4 0  9995","CLASSIFICATION_TYPE":"U","EPOCH":"2021-11-13T18:50:25.748736"},{"FILE":"3214514","SITE":"AFETR","REF_FRAME":"TEME","RA_OF_ASC_NODE":"135.2530","ECCENTRICITY":"0.00014650","GP_ID":"189712786","PERIOD":"95.592","TLE_LINE2":"2 46705  53.0534 135.2530 0001465  69.0794 291.0352 15.06397848 59258","ELEMENT_SET_NO":"999","ARG_OF_PERICENTER":"69.0794","MEAN_MOTION_DOT":"0.00000476","OBJECT_TYPE":"PAYLOAD","INCLINATION":"53.0534","APOAPSIS":"548.235","NORAD_CAT_ID":"46705","MEAN_MOTION_DDOT":"0.0000000000000","BSTAR":"0.00005084300000","REV_AT_EPOCH":"5925","OBJECT_ID":"2020-073AM","COUNTRY_CODE":"US","MEAN_MOTION":"15.06397848","EPHEMERIS_TYPE":"0","MEAN_ELEMENT_THEORY":"SGP4","CENTER_NAME":"EARTH","DECAY_DATE":null,"TIME_SYSTEM":"UTC","OBJECT_NAME":"STARLINK-1805","SEMIMAJOR_AXIS":"6925.355","RCS_SIZE":"LARGE","LAUNCH_DATE":"2020-10-18","PERIAPSIS":"546.206","TLE_LINE1":"1 46705U 20073AM  21317.86473866  .00000476  00000-0  50843-4 0  9997","CLASSIFICATION_TYPE":"U","MEAN_ANOMALY":"291.0352","EPOCH":"2021-11-13T20:45:13.420224"},{"INCLINATION":"53.0534","APOAPSIS":"548.285","NORAD_CAT_ID":"46706","MEAN_MOTION_DDOT":"0.0000000000000","BSTAR":"0.00010269000000","REV_AT_EPOCH":"5947","SITE":"AFETR","FILE":"3214514","REF_FRAME":"TEME","ECCENTRICITY":"0.00015660","RA_OF_ASC_NODE":"120.0733","GP_ID":"189713037","TLE_LINE2":"2 46706  53.0534 120.0733 0001566  89.7638 270.3530 15.06404311 59470","PERIOD":"95.592","ELEMENT_SET_NO":"999","ARG_OF_PERICENTER":"89.7638","OBJECT_TYPE":"PAYLOAD","MEAN_MOTION_DOT":"0.00001249","PERIAPSIS":"546.116","TLE_LINE1":"1 46706U 20073AN  21317.90482977  .00001249  00000-0  10269-3 0  9992","CLASSIFICATION_TYPE":"U","MEAN_ANOMALY":"270.3530","EPOCH":"2021-11-13T21:42:57.292128","OBJECT_ID":"2020-073AN","COUNTRY_CODE":"US","EPHEMERIS_TYPE":"0","MEAN_MOTION":"15.06404311","MEAN_ELEMENT_THEORY":"SGP4","CENTER_NAME":"EARTH","DECAY_DATE":null,"TIME_SYSTEM":"UTC","OBJECT_NAME":"STARLINK-1807","RCS_SIZE":"LARGE","SEMIMAJOR_AXIS":"6925.335","LAUNCH_DATE":"2020-10-18"},{"MEAN_ELEMENT_THEORY":"SGP4","EPHEMERIS_TYPE":"0","COUNTRY_CODE":"US","MEAN_MOTION":"15.06392762","OBJECT_ID":"2020-073AP","TIME_SYSTEM":"UTC","DECAY_DATE":null,"CENTER_NAME":"EARTH","SEMIMAJOR_AXIS":"6925.371","RCS_SIZE":"LARGE","OBJECT_NAME":"STARLINK-1808","LAUNCH_DATE":"2020-10-18","PERIAPSIS":"546.044","MEAN_ANOMALY":"136.1096","CLASSIFICATION_TYPE":"U","TLE_LINE1":"1 46707U 20073AP  21317.82924242  .00000779  00000-0  71189-4 0  9996","EPOCH":"2021-11-13T19:54:06.545088","REF_FRAME":"TEME","FILE":"3214514","SITE":"AFETR","RA_OF_ASC_NODE":"100.4214","ECCENTRICITY":"0.00017210","GP_ID":"189711785","MEAN_MOTION_DOT":"0.00000779","OBJECT_TYPE":"PAYLOAD","ARG_OF_PERICENTER":"223.9756","ELEMENT_SET_NO":"999","TLE_LINE2":"2 46707  53.0538 100.4214 0001721 223.9756 136.1096 15.06392762 59749","PERIOD":"95.593","MEAN_MOTION_DDOT":"0.0000000000000","APOAPSIS":"548.428","NORAD_CAT_ID":"46707","INCLINATION":"53.0538","REV_AT_EPOCH":"5974","BSTAR":"0.00007118900000"},{"PERIAPSIS":"415.379","EPOCH":"2021-11-13T15:30:36.887328","CLASSIFICATION_TYPE":"U","TLE_LINE1":"1 46708U 20073AQ  21317.64626027  .00037907  00000-0  67039-3 0  9998","MEAN_ANOMALY":"336.2330","DECAY_DATE":null,"CENTER_NAME":"EARTH","TIME_SYSTEM":"UTC","OBJECT_ID":"2020-073AQ","MEAN_ELEMENT_THEORY":"SGP4","EPHEMERIS_TYPE":"0","COUNTRY_CODE":"US","MEAN_MOTION":"15.49973828","LAUNCH_DATE":"2020-10-18","OBJECT_NAME":"STARLINK-1809","RCS_SIZE":"LARGE","SEMIMAJOR_AXIS":"6794.940","BSTAR":"0.00067039000000","REV_AT_EPOCH":"5989","INCLINATION":"53.0548","APOAPSIS":"418.230","NORAD_CAT_ID":"46708","MEAN_MOTION_DDOT":"0.0000000000000","ECCENTRICITY":"0.00020980","RA_OF_ASC_NODE":"88.6330","REF_FRAME":"TEME","SITE":"AFETR","FILE":"3214514","ELEMENT_SET_NO":"999","ARG_OF_PERICENTER":"23.8775","PERIOD":"92.905","TLE_LINE2":"2 46708  53.0548  88.6330 0002098  23.8775 336.2330 15.49973828 59898","OBJECT_TYPE":"PAYLOAD","MEAN_MOTION_DOT":"0.00037907","GP_ID":"189712035"}];
